{"type": "FeatureCollection", "features": [ {"type": "Feature", "properties": {"norad_id": 36011, "name": "IRIDIUM 33 DEB", "group": "iridium-33-debris", "lat": 10.121493593833057, "lon": 38.47589097522529, "alt_km": 763.7877633329017, "timestamp": "2025-12-07T03:52:32.887365+00:00", "meta": {"OBJECT_NAME": "IRIDIUM 33 DEB", "OBJECT_ID": "1997-051US", "EPOCH": "2025-11-27T22:48:02.153088", "MEAN_MOTION": 14.41259363, "ECCENTRICITY": 0.0016688, "INCLINATION": 86.3418, "RA_OF_ASC_NODE": 41.7752, "ARG_OF_PERICENTER": 268.8947, "MEAN_ANOMALY": 217.0188, "EPHEMERIS_TYPE": 0, "CLASSIFICATION_TYPE": "U", "NORAD_CAT_ID": 36011, "ELEMENT_SET_NO": 999, "REV_AT_EPOCH": 64327, "BSTAR": 0.00058853, "MEAN_MOTION_DOT": 1.923e-05, "MEAN_MOTION_DDOT": 0}, "tle": {"line1": "1 36011U 97051US  25331.95002492  .00001923  00000+0  58853-3 0  9994", "line2": "2 36011  86.3418  41.7752 0016688 268.8947 217.0188 14.41259363643279"}}, "geometry": {"type": "Point", "coordinates": [38.47589097522529, 10.121493593833057]}}, {"type": "Feature", "properties": {"norad_id": 36012, "name": "IRIDIUM 33 DEB", "group": "iridium-33-debris", "lat": 27.43887553897211, "lon": -48.36606236083396, "alt_km": 868.7056372115312, "timestamp": "2025-12-07T03:52:32.887377+00:00", "meta": {"OBJECT_NAME": "IRIDIUM 33 DEB", "OBJECT_ID": "1997-051UT", "EPOCH": "2025-12-06T04:02:53.038752", "MEAN_MOTION": 14.18666574, "ECCENTRICITY": 0.02131994, "INCLINATION": 86.4443, "RA_OF_ASC_NODE": 310.1835, "ARG_OF_PERICENTER": 284.453, "MEAN_ANOMALY": 73.3086, "EPHEMERIS_TYPE": 0, "CLASSIFICATION_TYPE": "U", "NORAD_CAT_ID": 36012, "ELEMENT_SET_NO": 999, "REV_AT_EPOCH": 65391, "BSTAR": 0.011047902, "MEAN_MOTION_DOT": 0.0002881, "MEAN_MOTION_DDOT": 0}, "tle": {"line1": "1 36012U 97051UT  25340.16866943  .00028810  00000+0  11048-1 0  9994", "line2": "2 36012  86.4443 310.1835 0213199 284.4530  73.3086 14.18666574653914"}}, "geometry": {"type": "Point", "coordinates": [-48.36606236083396, 27.43887553897211]}}, {"type": "Feature", "properties": {"norad_id": 36028, "name": "IRIDIUM 33 DEB", "group": "iridium-33-debris", "lat": 18.138987249121357, "lon": -49.470831213725894, "alt_km": 573.3483907125928, "timestamp": "2025-12-07T03:52:32.887394+00:00", "meta": {"OBJECT_NAME": "IRIDIUM 33 DEB", "OBJECT_ID": "1997-051VK", "EPOCH": "2025-12-02T04:53:22.244352", "MEAN_MOTION": 14.94476089, "ECCENTRICITY": 0.0022096, "INCLINATION": 86.3209, "RA_OF_ASC_NODE": 311.6506, "ARG_OF_PERICENTER": 84.2868, "MEAN_ANOMALY": 276.0879, "EPHEMERIS_TYPE": 0, "CLASSIFICATION_TYPE": "U", "NORAD_CAT_ID": 36028, "ELEMENT_SET_NO": 999, "REV_AT_EPOCH": 86967, "BSTAR": 0.0026794, "MEAN_MOTION_DOT": 0.00029149, "MEAN_MOTION_DDOT": 0}, "tle": {"line1": "1 36028U 97051VK  25336.20372968  .00029149  00000+0  26794-2 0  9991", "line2": "2 36028  86.3209 311.6506 0022096  84.2868 276.0879 14.94476089869673"}}, "geometry": {"type": "Point", "coordinates": [-49.470831213725894, 18.138987249121357]}}, {"type": "Feature", "properties": {"norad_id": 36080, "name": "IRIDIUM 33 DEB", "group": "iridium-33-debris", "lat": 49.70396631193762, "lon": -173.93361424716772, "alt_km": 723.5799012170073, "timestamp": "2025-12-07T03:52:32.887405+00:00", "meta": {"OBJECT_NAME": "IRIDIUM 33 DEB", "OBJECT_ID": "1997-051VM", "EPOCH": "2025-12-04T08:52:09.343776", "MEAN_MOTION": 14.46551411, "ECCENTRICITY": 0.0017324, "INCLINATION": 86.3204, "RA_OF_ASC_NODE": 11.6345, "ARG_OF_PERICENTER": 183.7015, "MEAN_ANOMALY": 176.4063, "EPHEMERIS_TYPE": 0, "CLASSIFICATION_TYPE": "U", "NORAD_CAT_ID": 36080, "ELEMENT_SET_NO": 999, "REV_AT_EPOCH": 47293, "BSTAR": 0.0013956, "MEAN_MOTION_DOT": 5.055e-05, "MEAN_MOTION_DDOT": 0}, "tle": {"line1": "1 36080U 97051VM  25338.36955259  .00005055  00000+0  13956-2 0  9994", "line2": "2 36080  86.3204  11.6345 0017324 183.7015 176.4063 14.46551411472938"}}, "geometry": {"type": "Point", "coordinates": [-173.93361424716772, 49.70396631193762]}}, {"type": "Feature", "properties": {"norad_id": 36083, "name": "IRIDIUM 33 DEB", "group": "iridium-33-debris", "lat": -69.15196835102634, "lon": 26.890297894064137, "alt_km": 743.5615787473489, "timestamp": "2025-12-07T03:52:32.887415+00:00", "meta": {"OBJECT_NAME": "IRIDIUM 33 DEB", "OBJECT_ID": "1997-051VQ", "EPOCH": "2025-12-06T09:53:32.490240", "MEAN_MOTION": 14.43173042, "ECCENTRICITY": 0.00247488, "INCLINATION": 86.3443, "RA_OF_ASC_NODE": 36.8772, "ARG_OF_PERICENTER": 245.0182, "MEAN_ANOMALY": 114.8448, "EPHEMERIS_TYPE": 0, "CLASSIFICATION_TYPE": "U", "NORAD_CAT_ID": 36083, "ELEMENT_SET_NO": 999, "REV_AT_EPOCH": 85358, "BSTAR": 0.0011202565, "MEAN_MOTION_DOT": 3.795e-05, "MEAN_MOTION_DDOT": 0}, "tle": {"line1": "1 36083U 97051VQ  25340.41218160  .00003795  00000+0  11203-2 0  9991", "line2": "2 36083  86.3443  36.8772 0024748 245.0182 114.8448 14.43173042853588"}}, "geometry": {"type": "Point", "coordinates": [26.890297894064137, -69.15196835102634]}}, {"type": "Feature", "properties": {"norad_id": 36390, "name": "IRIDIUM 33 DEB", "group": "iridium-33-debris", "lat": -39.969038134451885, "lon": 125.06708577482803, "alt_km": 640.8692623429688, "timestamp": "2025-12-07T03:52:32.887426+00:00", "meta": {"OBJECT_NAME": "IRIDIUM 33 DEB", "OBJECT_ID": "1997-051VU", "EPOCH": "2025-11-30T04:37:26.668128", "MEAN_MOTION": 14.73329322, "ECCENTRICITY": 0.00285998, "INCLINATION": 86.289, "RA_OF_ASC_NODE": 305.1428, "ARG_OF_PERICENTER": 206.0853, "MEAN_ANOMALY": 153.8925, "EPHEMERIS_TYPE": 0, "CLASSIFICATION_TYPE": "U", "NORAD_CAT_ID": 36390, "ELEMENT_SET_NO": 999, "REV_AT_EPOCH": 66077, "BSTAR": 0.001268982, "MEAN_MOTION_DOT": 8.29e-05, "MEAN_MOTION_DDOT": 0}, "tle": {"line1": "1 36390U 97051VU  25334.19266977  .00008290  00000+0  12690-2 0  9995", "line2": "2 36390  86.2890 305.1428 0028599 206.0853 153.8925 14.73329322660771"}}, "geometry": {"type": "Point", "coordinates": [125.06708577482803, -39.969038134451885]}}, {"type": "Feature", "properties": {"norad_id": 36483, "name": "IRIDIUM 33 DEB", "group": "iridium-33-debris", "lat": 41.47451561885653, "lon": 58.0850107301118, "alt_km": 737.5453634932237, "timestamp": "2025-12-07T03:52:32.887436+00:00", "meta": {"OBJECT_NAME": "IRIDIUM 33 DEB", "OBJECT_ID": "1997-051VZ", "EPOCH": "2025-12-05T11:49:05.492352", "MEAN_MOTION": 14.45768404, "ECCENTRICITY": 0.00105609, "INCLINATION": 86.3804, "RA_OF_ASC_NODE": 55.5915, "ARG_OF_PERICENTER": 147.4129, "MEAN_ANOMALY": 212.7727, "EPHEMERIS_TYPE": 0, "CLASSIFICATION_TYPE": "U", "NORAD_CAT_ID": 36483, "ELEMENT_SET_NO": 999, "REV_AT_EPOCH": 65041, "BSTAR": 0.0010569491, "MEAN_MOTION_DOT": 3.767e-05, "MEAN_MOTION_DDOT": 0}, "tle": {"line1": "1 36483U 97051VZ  25339.49242468  .00003767  00000+0  10569-2 0  9992", "line2": "2 36483  86.3804  55.5915 0010560 147.4129 212.7727 14.45768404650412"}}, "geometry": {"type": "Point", "coordinates": [58.0850107301118, 41.47451561885653]}}, {"type": "Feature", "properties": {"norad_id": 36490, "name": "IRIDIUM 33 DEB", "group": "iridium-33-debris", "lat": 50.78607811156851, "lon": 17.447349824771415, "alt_km": 634.5533363477771, "timestamp": "2025-12-07T03:52:32.887447+00:00", "meta": {"OBJECT_NAME": "IRIDIUM 33 DEB", "OBJECT_ID": "1997-051WG", "EPOCH": "2025-12-06T13:00:08.149536", "MEAN_MOTION": 14.75996882, "ECCENTRICITY": 0.0005444, "INCLINATION": 86.365, "RA_OF_ASC_NODE": 13.2585, "ARG_OF_PERICENTER": 96.103, "MEAN_ANOMALY": 264.0809, "EPHEMERIS_TYPE": 0, "CLASSIFICATION_TYPE": "U", "NORAD_CAT_ID": 36490, "ELEMENT_SET_NO": 999, "REV_AT_EPOCH": 86393, "BSTAR": 0.0025653876, "MEAN_MOTION_DOT": 0.00017711, "MEAN_MOTION_DDOT": 0}, "tle": {"line1": "1 36490U 97051WG  25340.54176099  .00017711  00000+0  25654-2 0  9999", "line2": "2 36490  86.3650  13.2585 0005444  96.1030 264.0809 14.75996882863939"}}, "geometry": {"type": "Point", "coordinates": [17.447349824771415, 50.78607811156851]}}, {"type": "Feature", "properties": {"norad_id": 36493, "name": "IRIDIUM 33 DEB", "group": "iridium-33-debris", "lat": -12.927299304361998, "lon": -165.00330876653047, "alt_km": 688.9497532011737, "timestamp": "2025-12-07T03:52:32.887458+00:00", "meta": {"OBJECT_NAME": "IRIDIUM 33 DEB", "OBJECT_ID": "1997-051WK", "EPOCH": "2025-12-04T20:54:22.682304", "MEAN_MOTION": 14.65078368, "ECCENTRICITY": 0.0011123, "INCLINATION": 86.3577, "RA_OF_ASC_NODE": 15.1759, "ARG_OF_PERICENTER": 30.554, "MEAN_ANOMALY": 329.6318, "EPHEMERIS_TYPE": 0, "CLASSIFICATION_TYPE": "U", "NORAD_CAT_ID": 36493, "ELEMENT_SET_NO": 999, "REV_AT_EPOCH": 74403, "BSTAR": 0.0027859, "MEAN_MOTION_DOT": 0.00015002, "MEAN_MOTION_DDOT": 0}, "tle": {"line1": "1 36493U 97051WK  25338.87109586  .00015002  00000+0  27859-2 0  9992", "line2": "2 36493  86.3577  15.1759 0011123  30.5540 329.6318 14.65078368744034"}}, "geometry": {"type": "Point", "coordinates": [-165.00330876653047, -12.927299304361998]}}, {"type": "Feature", "properties": {"norad_id": 37548, "name": "IRIDIUM 33 DEB", "group": "iridium-33-debris", "lat": -61.002173897353785, "lon": 39.187084042889154, "alt_km": 729.0295899983494, "timestamp": "2025-12-07T03:52:32.887469+00:00", "meta": {"OBJECT_NAME": "IRIDIUM 33 DEB", "OBJECT_ID": "1997-051XH", "EPOCH": "2025-11-29T22:23:36.250944", "MEAN_MOTION": 14.5113469, "ECCENTRICITY": 0.00243457, "INCLINATION": 86.3524, "RA_OF_ASC_NODE": 48.9393, "ARG_OF_PERICENTER": 232.6782, "MEAN_ANOMALY": 127.2204, "EPHEMERIS_TYPE": 0, "CLASSIFICATION_TYPE": "U", "NORAD_CAT_ID": 37548, "ELEMENT_SET_NO": 999, "REV_AT_EPOCH": 65346, "BSTAR": 0.0012745087, "MEAN_MOTION_DOT": 5.093e-05, "MEAN_MOTION_DDOT": 0}, "tle": {"line1": "1 37548U 97051XH  25333.93305846  .00005093  00000+0  12745-2 0  9990", "line2": "2 37548  86.3524  48.9393 0024345 232.6782 127.2204 14.51134690653467"}}, "geometry": {"type": "Point", "coordinates": [39.187084042889154, -61.002173897353785]}}]}